CCSDS_OMM_VERS = 2.0
CREATION_DATE  = 
ORIGINATOR     = 

OBJECT_NAME    = STARLINK-36164
OBJECT_ID      = 2025-299AB
CENTER_NAME    = EARTH
REF_FRAME      = TEME
TIME_SYSTEM    = UTC
MEAN_ELEMENT_THEORY = SGP/SGP4

EPOCH          = 2025-12-26T20:00:01.999008
MEAN_MOTION    = 15.77840516
ECCENTRICITY   = .0001597
INCLINATION    = 42.9980
RA_OF_ASC_NODE = 230.2118
ARG_OF_PERICENTER = 261.2200
MEAN_ANOMALY   = 15.2478

EPHEMERIS_TYPE = 0
CLASSIFICATION_TYPE = U
NORAD_CAT_ID   = 67127
ELEMENT_SET_NO = 999
REV_AT_EPOCH   = 307
BSTAR          = -.11864E-1
MEAN_MOTION_DOT = -.1810229E-1
MEAN_MOTION_DDOT = 0

CCSDS_OMM_VERS = 2.0
CREATION_DATE  = 
ORIGINATOR     = 

OBJECT_NAME    = STARLINK-35685
OBJECT_ID      = 2025-299AC
CENTER_NAME    = EARTH
REF_FRAME      = TEME
TIME_SYSTEM    = UTC
MEAN_ELEMENT_THEORY = SGP/SGP4

EPOCH          = 2025-12-26T20:00:01.999008
MEAN_MOTION    = 15.77813242
ECCENTRICITY   = .0001473
INCLINATION    = 42.9979
RA_OF_ASC_NODE = 230.2000
ARG_OF_PERICENTER = 270.1395
MEAN_ANOMALY   = 10.8567

EPHEMERIS_TYPE = 0
CLASSIFICATION_TYPE = U
NORAD_CAT_ID   = 67128
ELEMENT_SET_NO = 999
REV_AT_EPOCH   = 307
BSTAR          = -.11879E-1
MEAN_MOTION_DOT = -.1810171E-1
MEAN_MOTION_DDOT = 0

CCSDS_OMM_VERS = 2.0
CREATION_DATE  = 
ORIGINATOR     = 

OBJECT_NAME    = STARLINK-36214
OBJECT_ID      = 2025-299AD
CENTER_NAME    = EARTH
REF_FRAME      = TEME
TIME_SYSTEM    = UTC
MEAN_ELEMENT_THEORY = SGP/SGP4

EPOCH          = 2025-12-26T20:00:01.999008
MEAN_MOTION    = 15.77839697
ECCENTRICITY   = .0001655
INCLINATION    = 42.9982
RA_OF_ASC_NODE = 230.2069
ARG_OF_PERICENTER = 260.8484
MEAN_ANOMALY   = 17.5677

EPHEMERIS_TYPE = 0
CLASSIFICATION_TYPE = U
NORAD_CAT_ID   = 67129
ELEMENT_SET_NO = 999
REV_AT_EPOCH   = 307
BSTAR          = -.1188E-1
MEAN_MOTION_DOT = -.1812321E-1
MEAN_MOTION_DDOT = 0

CCSDS_OMM_VERS = 2.0
CREATION_DATE  = 
ORIGINATOR     = 

OBJECT_NAME    = STARLINK-36194
OBJECT_ID      = 2025-299AE
CENTER_NAME    = EARTH
REF_FRAME      = TEME
TIME_SYSTEM    = UTC
MEAN_ELEMENT_THEORY = SGP/SGP4

EPOCH          = 2025-12-26T20:00:01.999008
MEAN_MOTION    = 15.77729261
ECCENTRICITY   = .0001349
INCLINATION    = 42.9979
RA_OF_ASC_NODE = 230.1915
ARG_OF_PERICENTER = 260.6090
MEAN_ANOMALY   = 24.6038

EPHEMERIS_TYPE = 0
CLASSIFICATION_TYPE = U
NORAD_CAT_ID   = 67130
ELEMENT_SET_NO = 999
REV_AT_EPOCH   = 307
BSTAR          = -.12018E-1
MEAN_MOTION_DOT = -.1822463E-1
MEAN_MOTION_DDOT = 0

CCSDS_OMM_VERS = 2.0
CREATION_DATE  = 
ORIGINATOR     = 

OBJECT_NAME    = ZIYUAN 3-04 (ZY 3-04)
OBJECT_ID      = 2025-300A
CENTER_NAME    = EARTH
REF_FRAME      = TEME
TIME_SYSTEM    = UTC
MEAN_ELEMENT_THEORY = SGP/SGP4

EPOCH          = 2025-12-21T18:22:34.187808
MEAN_MOTION    = 15.21179479
ECCENTRICITY   = .00027623
INCLINATION    = 97.4922
RA_OF_ASC_NODE = 69.8294
ARG_OF_PERICENTER = 167.6924
MEAN_ANOMALY   = 192.4380

EPHEMERIS_TYPE = 0
CLASSIFICATION_TYPE = U
NORAD_CAT_ID   = 67131
ELEMENT_SET_NO = 999
REV_AT_EPOCH   = 86
BSTAR          = .65769783E-4
MEAN_MOTION_DOT = .1396E-4
MEAN_MOTION_DDOT = 0

CCSDS_OMM_VERS = 2.0
CREATION_DATE  = 
ORIGINATOR     = 

OBJECT_NAME    = CZ-4B R/B
OBJECT_ID      = 2025-300B
CENTER_NAME    = EARTH
REF_FRAME      = TEME
TIME_SYSTEM    = UTC
MEAN_ELEMENT_THEORY = SGP/SGP4

EPOCH          = 2025-12-18T16:13:04.609056
MEAN_MOTION    = 15.63831828
ECCENTRICITY   = .01741973
INCLINATION    = 97.5563
RA_OF_ASC_NODE = 66.9660
ARG_OF_PERICENTER = 9.3582
MEAN_ANOMALY   = 351.0851

EPHEMERIS_TYPE = 0
CLASSIFICATION_TYPE = U
NORAD_CAT_ID   = 67132
ELEMENT_SET_NO = 999
REV_AT_EPOCH   = 40
BSTAR          = .19566238E-3
MEAN_MOTION_DOT = .40543E-3
MEAN_MOTION_DDOT = .2652968E-5

CCSDS_OMM_VERS = 2.0
CREATION_DATE  = 
ORIGINATOR     = 

OBJECT_NAME    = KUIPER-00144
OBJECT_ID      = 2025-301A
CENTER_NAME    = EARTH
REF_FRAME      = TEME
TIME_SYSTEM    = UTC
MEAN_ELEMENT_THEORY = SGP/SGP4

EPOCH          = 2025-12-26T18:20:59.680032
MEAN_MOTION    = 15.35482899
ECCENTRICITY   = .0006208
INCLINATION    = 51.8706
RA_OF_ASC_NODE = 57.5030
ARG_OF_PERICENTER = 123.3894
MEAN_ANOMALY   = 236.7686

EPHEMERIS_TYPE = 0
CLASSIFICATION_TYPE = U
NORAD_CAT_ID   = 67133
ELEMENT_SET_NO = 999
REV_AT_EPOCH   = 252
BSTAR          = .95145E-3
MEAN_MOTION_DOT = .33088E-3
MEAN_MOTION_DDOT = 0

CCSDS_OMM_VERS = 2.0
CREATION_DATE  = 
ORIGINATOR     = 

OBJECT_NAME    = KUIPER-00164
OBJECT_ID      = 2025-301B
CENTER_NAME    = EARTH
REF_FRAME      = TEME
TIME_SYSTEM    = UTC
MEAN_ELEMENT_THEORY = SGP/SGP4

EPOCH          = 2025-12-26T15:06:29.032416
MEAN_MOTION    = 15.36165446
ECCENTRICITY   = .0003215
INCLINATION    = 51.8731
RA_OF_ASC_NODE = 58.0973
ARG_OF_PERICENTER = 103.9650
MEAN_ANOMALY   = 256.1693

EPHEMERIS_TYPE = 0
CLASSIFICATION_TYPE = U
NORAD_CAT_ID   = 67134
ELEMENT_SET_NO = 999
REV_AT_EPOCH   = 268
BSTAR          = .6672E-3
MEAN_MOTION_DOT = .23565E-3
MEAN_MOTION_DDOT = 0

CCSDS_OMM_VERS = 2.0
CREATION_DATE  = 
ORIGINATOR     = 

OBJECT_NAME    = KUIPER-00175
OBJECT_ID      = 2025-301C
CENTER_NAME    = EARTH
REF_FRAME      = TEME
TIME_SYSTEM    = UTC
MEAN_ELEMENT_THEORY = SGP/SGP4

EPOCH          = 2025-12-26T19:42:42.118848
MEAN_MOTION    = 15.36621513
ECCENTRICITY   = .0002301
INCLINATION    = 51.8745
RA_OF_ASC_NODE = 57.1268
ARG_OF_PERICENTER = 57.6434
MEAN_ANOMALY   = 302.4774

EPHEMERIS_TYPE = 0
CLASSIFICATION_TYPE = U
NORAD_CAT_ID   = 67135
ELEMENT_SET_NO = 999
REV_AT_EPOCH   = 260
BSTAR          = .53937E-3
MEAN_MOTION_DOT = .19249E-3
MEAN_MOTION_DDOT = 0

CCSDS_OMM_VERS = 2.0
CREATION_DATE  = 
ORIGINATOR     = 

OBJECT_NAME    = KUIPER-00179
OBJECT_ID      = 2025-301D
CENTER_NAME    = EARTH
REF_FRAME      = TEME
TIME_SYSTEM    = UTC
MEAN_ELEMENT_THEORY = SGP/SGP4

EPOCH          = 2025-12-26T18:12:00.163008
MEAN_MOTION    = 15.36281070
ECCENTRICITY   = .0002994
INCLINATION    = 51.8746
RA_OF_ASC_NODE = 57.4564
ARG_OF_PERICENTER = 88.5033
MEAN_ANOMALY   = 271.6296

EPHEMERIS_TYPE = 0
CLASSIFICATION_TYPE = U
NORAD_CAT_ID   = 67136
ELEMENT_SET_NO = 999
REV_AT_EPOCH   = 270
BSTAR          = .83358E-3
MEAN_MOTION_DOT = .29673E-3
MEAN_MOTION_DDOT = 0

CCSDS_OMM_VERS = 2.0
CREATION_DATE  = 
ORIGINATOR     = 

OBJECT_NAME    = KUIPER-00181
OBJECT_ID      = 2025-301E
CENTER_NAME    = EARTH
REF_FRAME      = TEME
TIME_SYSTEM    = UTC
MEAN_ELEMENT_THEORY = SGP/SGP4

EPOCH          = 2025-12-26T18:31:05.609280
MEAN_MOTION    = 15.34464358
ECCENTRICITY   = .0010017
INCLINATION    = 51.8644
RA_OF_ASC_NODE = 57.5486
ARG_OF_PERICENTER = 145.4576
MEAN_ANOMALY   = 214.7062

EPHEMERIS_TYPE = 0
CLASSIFICATION_TYPE = U
NORAD_CAT_ID   = 67137
ELEMENT_SET_NO = 999
REV_AT_EPOCH   = 268
BSTAR          = .70631E-3
MEAN_MOTION_DOT = .23665E-3
MEAN_MOTION_DDOT = 0

CCSDS_OMM_VERS = 2.0
CREATION_DATE  = 
ORIGINATOR     = 

OBJECT_NAME    = KUIPER-00183
OBJECT_ID      = 2025-301F
CENTER_NAME    = EARTH
REF_FRAME      = TEME
TIME_SYSTEM    = UTC
MEAN_ELEMENT_THEORY = SGP/SGP4

EPOCH          = 2025-12-26T18:34:23.767680
MEAN_MOTION    = 15.34130983
ECCENTRICITY   = .001122
INCLINATION    = 51.8616
RA_OF_ASC_NODE = 57.5624
ARG_OF_PERICENTER = 149.9887
MEAN_ANOMALY   = 210.1743

EPHEMERIS_TYPE = 0
CLASSIFICATION_TYPE = U
NORAD_CAT_ID   = 67138
ELEMENT_SET_NO = 999
REV_AT_EPOCH   = 269
BSTAR          = .98114E-3
MEAN_MOTION_DOT = .32724E-3
MEAN_MOTION_DDOT = 0

CCSDS_OMM_VERS = 2.0
CREATION_DATE  = 
ORIGINATOR     = 

OBJECT_NAME    = KUIPER-00184
OBJECT_ID      = 2025-301G
CENTER_NAME    = EARTH
REF_FRAME      = TEME
TIME_SYSTEM    = UTC
MEAN_ELEMENT_THEORY = SGP/SGP4

EPOCH          = 2025-12-26T15:22:21.745344
MEAN_MOTION    = 15.34443698
ECCENTRICITY   = .000899
INCLINATION    = 51.8629
RA_OF_ASC_NODE = 58.1701
ARG_OF_PERICENTER = 144.0750
MEAN_ANOMALY   = 216.0841

EPHEMERIS_TYPE = 0
CLASSIFICATION_TYPE = U
NORAD_CAT_ID   = 67139
ELEMENT_SET_NO = 999
REV_AT_EPOCH   = 278
BSTAR          = .82317E-4
MEAN_MOTION_DOT = .2409E-4
MEAN_MOTION_DDOT = 0

CCSDS_OMM_VERS = 2.0
CREATION_DATE  = 
ORIGINATOR     = 

OBJECT_NAME    = KUIPER-00186
OBJECT_ID      = 2025-301H
CENTER_NAME    = EARTH
REF_FRAME      = TEME
TIME_SYSTEM    = UTC
MEAN_ELEMENT_THEORY = SGP/SGP4

EPOCH          = 2025-12-26T18:24:57.394080
MEAN_MOTION    = 15.35057816
ECCENTRICITY   = .0007732
INCLINATION    = 51.8686
RA_OF_ASC_NODE = 57.5207
ARG_OF_PERICENTER = 133.1569
MEAN_ANOMALY   = 227.0064

EPHEMERIS_TYPE = 0
CLASSIFICATION_TYPE = U
NORAD_CAT_ID   = 67140
ELEMENT_SET_NO = 999
REV_AT_EPOCH   = 252
BSTAR          = .91971E-3
MEAN_MOTION_DOT = .3154E-3
MEAN_MOTION_DDOT = 0

CCSDS_OMM_VERS = 2.0
CREATION_DATE  = 
ORIGINATOR     = 

OBJECT_NAME    = KUIPER-00187
OBJECT_ID      = 2025-301J
CENTER_NAME    = EARTH
REF_FRAME      = TEME
TIME_SYSTEM    = UTC
MEAN_ELEMENT_THEORY = SGP/SGP4

EPOCH          = 2025-12-26T15:09:39.644640
MEAN_MOTION    = 15.35854825
ECCENTRICITY   = .0004362
INCLINATION    = 51.8715
RA_OF_ASC_NODE = 58.1127
ARG_OF_PERICENTER = 117.8868
MEAN_ANOMALY   = 242.2561

EPHEMERIS_TYPE = 0
CLASSIFICATION_TYPE = U
NORAD_CAT_ID   = 67141
ELEMENT_SET_NO = 999
REV_AT_EPOCH   = 250
BSTAR          = .61789E-3
MEAN_MOTION_DOT = .21573E-3
MEAN_MOTION_DDOT = 0

